{"fetched_at":"2026-03-30T06:02:59Z","count":15439,"tles":[{"name":"STARLINK-6368","line1":"1 57234U 23094S   26087.87091641  .00001163  00000+0  53031-4 0  9994","line2":"2 57234  43.0017 281.9884 0001308 265.9857  94.0845 15.26744697150054","category":"Starlink"}]}